EUTELSAT 7A             
1 28187U 04008A   25291.59746419  .00000102  00000+0  00000+0 0  9993
2 28187   5.2146  74.8766 0001563 184.5719 203.7802  1.00273144 78935
EUTELSAT 174A           
1 28924U 05052A   25291.80225852  .00000009  00000+0  00000+0 0  9995
2 28924   3.6056  79.5039 0006328 132.0477 278.8621  1.00274689 49917
EUTELSAT HOTBIRD 13B    
1 29270U 06032A   25291.91709237  .00000153  00000+0  00000+0 0  9995
2 29270   1.0349  84.8396 0004035 116.4452 189.6194  1.00270797 44887
EUTELSAT HOTBIRD 13C    
1 33459U 08065A   25291.90807900 -.00000102  00000+0  00000+0 0  9997
2 33459   2.3271  82.0283 0005860 147.3910 112.6534  1.00272151 44928
EUTELSAT 36B            
1 36101U 09065A   25291.92055906  .00000108  00000+0  00000+0 0  9993
2 36101   0.0599  36.4786 0006078 176.9181 196.1607  1.00273585 58288
EUTELSAT KA-SAT 9A      
1 37258U 10069A   25291.91232568  .00000058  00000+0  00000+0 0  9997
2 37258   0.0599 317.9295 0002640 215.2347 191.9541  1.00271654 41586
EUTELSAT 7 WEST A       
1 37816U 11051A   25291.90911900 -.00000064  00000+0  00000+0 0  9990
2 37816   0.0836  39.4005 0006382 165.3859 142.8512  1.00271962 51468
EUTELSAT 16A            
1 37836U 11057A   25291.91371236  .00000100  00000+0  00000+0 0  9991
2 37836   0.0674  16.0698 0005502 194.7768 161.7562  1.00273085  4907
